ONEWEB-0572             
1 55151U 23004M   26052.94448448  .00000072  00000+0  15138-3 0  9995
2 55151  87.9121  28.7553 0002092  84.1610 275.9760 13.17649955152307
ONEWEB-0573             
1 55152U 23004N   26053.08557521  .00000137  00000+0  31473-3 0  9997
2 55152  87.9229 358.3316 0002681  84.9525 275.1913 13.18685197154520
ONEWEB-0588             
1 55153U 23004P   26052.77546395  .00000042  00000+0  74165-4 0  9991
2 55153  87.9229 358.3936 0002276  77.8993 282.2394 13.18684652154481
ONEWEB-0598             
1 55154U 23004Q   26053.02843118  .00000295  00000+0  79677-3 0  9996
2 55154  87.8833  43.9760 0002147 101.7084 258.4285 13.11418339150805
ONEWEB-0599             
1 55155U 23004R   26052.90568593  .00000023  00000+0  27352-4 0  9997
2 55155  87.9120  28.7618 0001770  89.1307 271.0028 13.17650934152305
ONEWEB-0614             
1 55156U 23004S   26053.02334103  .00000199  00000+0  52553-3 0  9994
2 55156  87.8831  43.9855 0001989  75.8001 284.3348 13.11419546150745
ONEWEB-0616             
1 55157U 23004T   26052.94786416  .00000022  00000+0  22550-4 0  9993
2 55157  87.9131  28.7526 0001160 108.3607 251.7651 13.17648676152528
ONEWEB-0617             
1 55158U 23004U   26053.01146183 -.00000258  00000+0 -76398-3 0  9995
2 55158  87.8841  43.9702 0002164  80.8390 279.2983 13.11416737150761
ONEWEB-0618             
1 55159U 23004V   26053.00844646  .00005493  00000+0  31997-3 0  9994
2 55159  86.9054 224.3382 0012888  11.5348 348.6184 15.11735714164855
ONEWEB-0619             
1 55160U 23004W   26052.90399140  .00000016  00000+0  90554-5 0  9990
2 55160  87.9132  28.7344 0001610  72.0483 288.0824 13.17647447152418
ONEWEB-0620             
1 55161U 23004X   26053.00638347 -.00000402  00000+0 -11687-2 0  9996
2 55161  87.8834  43.9891 0002156  88.8387 271.2988 13.11419262150731
ONEWEB-0621             
1 55162U 23004Y   26053.03353394  .00000401  00000+0  10942-2 0  9996
2 55162  87.8842  43.9612 0001870  79.0442 281.0897 13.11416098150718
ONEWEB-0622             
1 55163U 23004Z   26052.96232000  .00000568  00000+0  15669-2 0  9993
2 55163  87.8836  43.9784 0002477  75.9453 284.1950 13.11415366150691
ONEWEB-0623             
1 55164U 23004AA  26052.97486713  .00000003  00000+0 -25765-4 0  9992
2 55164  87.9119  28.7635 0002141  62.3810 297.7538 13.17647361152410
ONEWEB-0624             
1 55165U 23004AB  26053.11908703  .00000224  00000+0  58208-3 0  9999
2 55165  87.8978  13.4434 0001945  77.0420 283.0926 13.12922413152971
ONEWEB-0625             
1 55166U 23004AC  26052.96474521  .00000001  00000+0 -31629-4 0  9991
2 55166  87.9118  28.7592 0001736  83.9573 276.1756 13.17648152152408
ONEWEB-0626             
1 55167U 23004AD  26053.18242499  .00000004  00000+0 -21966-4 0  9990
2 55167  87.9118  28.7165 0002233  93.1474 266.9913 13.17647439152433
