[{"OBJECT_NAME":"ONEWEB-0572","OBJECT_ID":"2023-004M","EPOCH":"2026-02-21T22:40:03.459072","MEAN_MOTION":13.17649955,"ECCENTRICITY":0.0002092,"INCLINATION":87.9121,"RA_OF_ASC_NODE":28.7553,"ARG_OF_PERICENTER":84.161,"MEAN_ANOMALY":275.976,"EPHEMERIS_TYPE":0,"CLASSIFICATION_TYPE":"U","NORAD_CAT_ID":55151,"ELEMENT_SET_NO":999,"REV_AT_EPOCH":15230,"BSTAR":0.00015138,"MEAN_MOTION_DOT":7.2e-7,"MEAN_MOTION_DDOT":0},{"OBJECT_NAME":"ONEWEB-0573","OBJECT_ID":"2023-004N","EPOCH":"2026-02-22T02:03:13.698144","MEAN_MOTION":13.18685197,"ECCENTRICITY":0.0002681,"INCLINATION":87.9229,"RA_OF_ASC_NODE":358.3316,"ARG_OF_PERICENTER":84.9525,"MEAN_ANOMALY":275.1913,"EPHEMERIS_TYPE":0,"CLASSIFICATION_TYPE":"U","NORAD_CAT_ID":55152,"ELEMENT_SET_NO":999,"REV_AT_EPOCH":15452,"BSTAR":0.00031473,"MEAN_MOTION_DOT":1.37e-6,"MEAN_MOTION_DDOT":0},{"OBJECT_NAME":"ONEWEB-0588","OBJECT_ID":"2023-004P","EPOCH":"2026-02-21T18:36:40.085280","MEAN_MOTION":13.18684652,"ECCENTRICITY":0.0002276,"INCLINATION":87.9229,"RA_OF_ASC_NODE":358.3936,"ARG_OF_PERICENTER":77.8993,"MEAN_ANOMALY":282.2394,"EPHEMERIS_TYPE":0,"CLASSIFICATION_TYPE":"U","NORAD_CAT_ID":55153,"ELEMENT_SET_NO":999,"REV_AT_EPOCH":15448,"BSTAR":7.4165e-5,"MEAN_MOTION_DOT":4.2e-7,"MEAN_MOTION_DDOT":0},{"OBJECT_NAME":"ONEWEB-0598","OBJECT_ID":"2023-004Q","EPOCH":"2026-02-22T00:40:56.453952","MEAN_MOTION":13.11418339,"ECCENTRICITY":0.0002147,"INCLINATION":87.8833,"RA_OF_ASC_NODE":43.976,"ARG_OF_PERICENTER":101.7084,"MEAN_ANOMALY":258.4285,"EPHEMERIS_TYPE":0,"CLASSIFICATION_TYPE":"U","NORAD_CAT_ID":55154,"ELEMENT_SET_NO":999,"REV_AT_EPOCH":15080,"BSTAR":0.00079677,"MEAN_MOTION_DOT":2.95e-6,"MEAN_MOTION_DDOT":0},{"OBJECT_NAME":"ONEWEB-0599","OBJECT_ID":"2023-004R","EPOCH":"2026-02-21T21:44:11.264352","MEAN_MOTION":13.17650934,"ECCENTRICITY":0.000177,"INCLINATION":87.912,"RA_OF_ASC_NODE":28.7618,"ARG_OF_PERICENTER":89.1307,"MEAN_ANOMALY":271.0028,"EPHEMERIS_TYPE":0,"CLASSIFICATION_TYPE":"U","NORAD_CAT_ID":55155,"ELEMENT_SET_NO":999,"REV_AT_EPOCH":15230,"BSTAR":2.7352e-5,"MEAN_MOTION_DOT":2.3e-7,"MEAN_MOTION_DDOT":0},{"OBJECT_NAME":"ONEWEB-0614","OBJECT_ID":"2023-004S","EPOCH":"2026-02-22T00:33:36.664992","MEAN_MOTION":13.11419546,"ECCENTRICITY":0.0001989,"INCLINATION":87.8831,"RA_OF_ASC_NODE":43.9855,"ARG_OF_PERICENTER":75.8001,"MEAN_ANOMALY":284.3348,"EPHEMERIS_TYPE":0,"CLASSIFICATION_TYPE":"U","NORAD_CAT_ID":55156,"ELEMENT_SET_NO":999,"REV_AT_EPOCH":15074,"BSTAR":0.00052553,"MEAN_MOTION_DOT":1.99e-6,"MEAN_MOTION_DDOT":0},{"OBJECT_NAME":"ONEWEB-0616","OBJECT_ID":"2023-004T","EPOCH":"2026-02-21T22:44:55.463424","MEAN_MOTION":13.17648676,"ECCENTRICITY":0.000116,"INCLINATION":87.9131,"RA_OF_ASC_NODE":28.7526,"ARG_OF_PERICENTER":108.3607,"MEAN_ANOMALY":251.7651,"EPHEMERIS_TYPE":0,"CLASSIFICATION_TYPE":"U","NORAD_CAT_ID":55157,"ELEMENT_SET_NO":999,"REV_AT_EPOCH":15252,"BSTAR":2.255e-5,"MEAN_MOTION_DOT":2.2e-7,"MEAN_MOTION_DDOT":0},{"OBJECT_NAME":"ONEWEB-0617","OBJECT_ID":"2023-004U","EPOCH":"2026-02-22T00:16:30.302112","MEAN_MOTION":13.11416737,"ECCENTRICITY":0.0002164,"INCLINATION":87.8841,"RA_OF_ASC_NODE":43.9702,"ARG_OF_PERICENTER":80.839,"MEAN_ANOMALY":279.2983,"EPHEMERIS_TYPE":0,"CLASSIFICATION_TYPE":"U","NORAD_CAT_ID":55158,"ELEMENT_SET_NO":999,"REV_AT_EPOCH":15076,"BSTAR":-0.00076398,"MEAN_MOTION_DOT":-2.58e-6,"MEAN_MOTION_DDOT":0},{"OBJECT_NAME":"ONEWEB-0618","OBJECT_ID":"2023-004V","EPOCH":"2026-02-22T00:12:09.774144","MEAN_MOTION":15.11735714,"ECCENTRICITY":0.0012888,"INCLINATION":86.9054,"RA_OF_ASC_NODE":224.3382,"ARG_OF_PERICENTER":11.5348,"MEAN_ANOMALY":348.6184,"EPHEMERIS_TYPE":0,"CLASSIFICATION_TYPE":"U","NORAD_CAT_ID":55159,"ELEMENT_SET_NO":999,"REV_AT_EPOCH":16485,"BSTAR":0.00031997,"MEAN_MOTION_DOT":5.493e-5,"MEAN_MOTION_DDOT":0},{"OBJECT_NAME":"ONEWEB-0619","OBJECT_ID":"2023-004W","EPOCH":"2026-02-21T21:41:44.856960","MEAN_MOTION":13.17647447,"ECCENTRICITY":0.000161,"INCLINATION":87.9132,"RA_OF_ASC_NODE":28.7344,"ARG_OF_PERICENTER":72.0483,"MEAN_ANOMALY":288.0824,"EPHEMERIS_TYPE":0,"CLASSIFICATION_TYPE":"U","NORAD_CAT_ID":55160,"ELEMENT_SET_NO":999,"REV_AT_EPOCH":15241,"BSTAR":9.0554e-6,"MEAN_MOTION_DOT":1.6e-7,"MEAN_MOTION_DDOT":0},{"OBJECT_NAME":"ONEWEB-0620","OBJECT_ID":"2023-004X","EPOCH":"2026-02-22T00:09:11.531808","MEAN_MOTION":13.11419262,"ECCENTRICITY":0.0002156,"INCLINATION":87.8834,"RA_OF_ASC_NODE":43.9891,"ARG_OF_PERICENTER":88.8387,"MEAN_ANOMALY":271.2988,"EPHEMERIS_TYPE":0,"CLASSIFICATION_TYPE":"U","NORAD_CAT_ID":55161,"ELEMENT_SET_NO":999,"REV_AT_EPOCH":15073,"BSTAR":-0.0011687,"MEAN_MOTION_DOT":-4.02e-6,"MEAN_MOTION_DDOT":0},{"OBJECT_NAME":"ONEWEB-0621","OBJECT_ID":"2023-004Y","EPOCH":"2026-02-22T00:48:17.332416","MEAN_MOTION":13.11416098,"ECCENTRICITY":0.000187,"INCLINATION":87.8842,"RA_OF_ASC_NODE":43.9612,"ARG_OF_PERICENTER":79.0442,"MEAN_ANOMALY":281.0897,"EPHEMERIS_TYPE":0,"CLASSIFICATION_TYPE":"U","NORAD_CAT_ID":55162,"ELEMENT_SET_NO":999,"REV_AT_EPOCH":15071,"BSTAR":0.0010942,"MEAN_MOTION_DOT":4.01e-6,"MEAN_MOTION_DDOT":0},{"OBJECT_NAME":"ONEWEB-0622","OBJECT_ID":"2023-004Z","EPOCH":"2026-02-21T23:05:44.448000","MEAN_MOTION":13.11415366,"ECCENTRICITY":0.0002477,"INCLINATION":87.8836,"RA_OF_ASC_NODE":43.9784,"ARG_OF_PERICENTER":75.9453,"MEAN_ANOMALY":284.195,"EPHEMERIS_TYPE":0,"CLASSIFICATION_TYPE":"U","NORAD_CAT_ID":55163,"ELEMENT_SET_NO":999,"REV_AT_EPOCH":15069,"BSTAR":0.0015669,"MEAN_MOTION_DOT":5.68e-6,"MEAN_MOTION_DDOT":0},{"OBJECT_NAME":"ONEWEB-0623","OBJECT_ID":"2023-004AA","EPOCH":"2026-02-21T23:23:48.520032","MEAN_MOTION":13.17647361,"ECCENTRICITY":0.0002141,"INCLINATION":87.9119,"RA_OF_ASC_NODE":28.7635,"ARG_OF_PERICENTER":62.381,"MEAN_ANOMALY":297.7538,"EPHEMERIS_TYPE":0,"CLASSIFICATION_TYPE":"U","NORAD_CAT_ID":55164,"ELEMENT_SET_NO":999,"REV_AT_EPOCH":15241,"BSTAR":-2.5765e-5,"MEAN_MOTION_DOT":3.0e-8,"MEAN_MOTION_DDOT":0},{"OBJECT_NAME":"ONEWEB-0624","OBJECT_ID":"2023-004AB","EPOCH":"2026-02-22T02:51:29.119392","MEAN_MOTION":13.12922413,"ECCENTRICITY":0.0001945,"INCLINATION":87.8978,"RA_OF_ASC_NODE":13.4434,"ARG_OF_PERICENTER":77.042,"MEAN_ANOMALY":283.0926,"EPHEMERIS_TYPE":0,"CLASSIFICATION_TYPE":"U","NORAD_CAT_ID":55165,"ELEMENT_SET_NO":999,"REV_AT_EPOCH":15297,"BSTAR":0.00058208,"MEAN_MOTION_DOT":2.24e-6,"MEAN_MOTION_DDOT":0},{"OBJECT_NAME":"ONEWEB-0625","OBJECT_ID":"2023-004AC","EPOCH":"2026-02-21T23:09:13.986144","MEAN_MOTION":13.17648152,"ECCENTRICITY":0.0001736,"INCLINATION":87.9118,"RA_OF_ASC_NODE":28.7592,"ARG_OF_PERICENTER":83.9573,"MEAN_ANOMALY":276.1756,"EPHEMERIS_TYPE":0,"CLASSIFICATION_TYPE":"U","NORAD_CAT_ID":55166,"ELEMENT_SET_NO":999,"REV_AT_EPOCH":15240,"BSTAR":-3.1629e-5,"MEAN_MOTION_DOT":1.0e-8,"MEAN_MOTION_DDOT":0},{"OBJECT_NAME":"ONEWEB-0626","OBJECT_ID":"2023-004AD","EPOCH":"2026-02-22T04:22:41.519136","MEAN_MOTION":13.17647439,"ECCENTRICITY":0.0002233,"INCLINATION":87.9118,"RA_OF_ASC_NODE":28.7165,"ARG_OF_PERICENTER":93.1474,"MEAN_ANOMALY":266.9913,"EPHEMERIS_TYPE":0,"CLASSIFICATION_TYPE":"U","NORAD_CAT_ID":55167,"ELEMENT_SET_NO":999,"REV_AT_EPOCH":15243,"BSTAR":-2.1966e-5,"MEAN_MOTION_DOT":4.0e-8,"MEAN_MOTION_DDOT":0}]
